start=new Date('2022-08-07T00:00:00.000Z').valueOf();
sats=[{"EPHEMERIS_TYPE":"0","SITE":"AFETR","EPOCH":"2022-08-06T20:47:47.972544","ARG_OF_PERICENTER":"67.7887","REV_AT_EPOCH":"8267","OBJECT_ID":"2021-012L","FILE":"3530813","PERIOD":"95.592","LAUNCH_DATE":"2021-02-16","ELEMENT_SET_NO":"999","PERIAPSIS":"545.257","ECCENTRICITY":"0.00028130","MEAN_MOTION_DOT":"0.00001168","BSTAR":"0.00009732400000","CENTER_NAME":"EARTH","RCS_SIZE":"LARGE","MEAN_MOTION_DDOT":"0.0000000000000","NORAD_CAT_ID":"47630","MEAN_ELEMENT_THEORY":"SGP4","REF_FRAME":"TEME","INCLINATION":"53.0555","APOAPSIS":"549.153","GP_ID":"209724777","TLE_LINE1":"1 47630U 21012L   22218.86652746  .00001168  00000-0  97324-4 0  9990","DECAY_DATE":null,"SEMIMAJOR_AXIS":"6925.340","CLASSIFICATION_TYPE":"U","MEAN_ANOMALY":"292.3400","OBJECT_TYPE":"PAYLOAD","RA_OF_ASC_NODE":"176.2260","TIME_SYSTEM":"UTC","OBJECT_NAME":"STARLINK-1983","TLE_LINE2":"2 47630  53.0555 176.2260 0002813  67.7887 292.3400 15.06402757 82676","COUNTRY_CODE":"US","MEAN_MOTION":"15.06402757"},{"BSTAR":"0.00005769300000","CENTER_NAME":"EARTH","MEAN_MOTION_DOT":"0.00000578","RCS_SIZE":"LARGE","MEAN_MOTION_DDOT":"0.0000000000000","REF_FRAME":"TEME","MEAN_ELEMENT_THEORY":"SGP4","NORAD_CAT_ID":"47632","OBJECT_ID":"2021-012N","REV_AT_EPOCH":"8371","FILE":"3530813","PERIAPSIS":"546.080","ECCENTRICITY":"0.00016370","LAUNCH_DATE":"2021-02-16","PERIOD":"95.592","ELEMENT_SET_NO":"999","ARG_OF_PERICENTER":"69.6644","EPOCH":"2022-08-06T19:02:15.528192","EPHEMERIS_TYPE":"0","SITE":"AFETR","TLE_LINE2":"2 47632  53.0538 101.4685 0001637  69.6644 290.4521 15.06399991 83719","COUNTRY_CODE":"US","MEAN_MOTION":"15.06399991","TIME_SYSTEM":"UTC","OBJECT_TYPE":"PAYLOAD","RA_OF_ASC_NODE":"101.4685","OBJECT_NAME":"STARLINK-1992","CLASSIFICATION_TYPE":"U","SEMIMAJOR_AXIS":"6925.349","MEAN_ANOMALY":"290.4521","APOAPSIS":"548.347","INCLINATION":"53.0538","GP_ID":"209725027","TLE_LINE1":"1 47632U 21012N   22218.79323528  .00000578  00000-0  57693-4 0  9996","DECAY_DATE":null},{"REV_AT_EPOCH":"8240","OBJECT_ID":"2021-012P","LAUNCH_DATE":"2021-02-16","PERIOD":"95.592","ELEMENT_SET_NO":"999","PERIAPSIS":"545.938","ECCENTRICITY":"0.00018310","FILE":"3530813","RCS_SIZE":"LARGE","MEAN_MOTION_DDOT":"0.0000000000000","MEAN_MOTION_DOT":"0.00001295","BSTAR":"0.00010582000000","CENTER_NAME":"EARTH","NORAD_CAT_ID":"47633","REF_FRAME":"TEME","MEAN_ELEMENT_THEORY":"SGP4","SITE":"AFETR","EPHEMERIS_TYPE":"0","EPOCH":"2022-08-06T16:18:23.457888","ARG_OF_PERICENTER":"61.9911","OBJECT_NAME":"STARLINK-2009","OBJECT_TYPE":"PAYLOAD","TIME_SYSTEM":"UTC","RA_OF_ASC_NODE":"196.9992","TLE_LINE2":"2 47633  53.0542 196.9992 0001831  61.9911 298.1263 15.06402404 82400","MEAN_MOTION":"15.06402404","COUNTRY_CODE":"US","GP_ID":"209725278","INCLINATION":"53.0542","APOAPSIS":"548.474","TLE_LINE1":"1 47633U 21012P   22218.67943817  .00001295  00000-0  10582-3 0  9995","DECAY_DATE":null,"SEMIMAJOR_AXIS":"6925.341","CLASSIFICATION_TYPE":"U","MEAN_ANOMALY":"298.1263"},{"ARG_OF_PERICENTER":"70.3300","EPOCH":"2022-08-06T15:42:35.718912","SITE":"AFETR","EPHEMERIS_TYPE":"0","REF_FRAME":"TEME","MEAN_ELEMENT_THEORY":"SGP4","NORAD_CAT_ID":"47634","MEAN_MOTION_DDOT":"0.0000000000000","RCS_SIZE":"LARGE","CENTER_NAME":"EARTH","BSTAR":"0.00014258000000","MEAN_MOTION_DOT":"0.00001843","ECCENTRICITY":"0.00015190","PERIAPSIS":"546.168","LAUNCH_DATE":"2021-02-16","ELEMENT_SET_NO":"999","PERIOD":"95.592","FILE":"3530813","OBJECT_ID":"2021-012Q","REV_AT_EPOCH":"8237","MEAN_ANOMALY":"289.7852","CLASSIFICATION_TYPE":"U","SEMIMAJOR_AXIS":"6925.355","DECAY_DATE":null,"TLE_LINE1":"1 47634U 21012Q   22218.65458008  .00001843  00000-0  14258-3 0  9990","GP_ID":"209725529","APOAPSIS":"548.272","INCLINATION":"53.0543","MEAN_MOTION":"15.06397835","COUNTRY_CODE":"US","TLE_LINE2":"2 47634  53.0543 197.0850 0001519  70.3300 289.7852 15.06397835 82373","OBJECT_NAME":"STARLINK-2010","OBJECT_TYPE":"PAYLOAD","RA_OF_ASC_NODE":"197.0850","TIME_SYSTEM":"UTC"},{"PERIAPSIS":"545.995","ECCENTRICITY":"0.00017670","LAUNCH_DATE":"2021-02-16","ELEMENT_SET_NO":"999","PERIOD":"95.592","FILE":"3530813","OBJECT_ID":"2021-012R","REV_AT_EPOCH":"8374","REF_FRAME":"TEME","MEAN_ELEMENT_THEORY":"SGP4","NORAD_CAT_ID":"47635","MEAN_MOTION_DDOT":"0.0000000000000","RCS_SIZE":"LARGE","BSTAR":"0.00005706000000","CENTER_NAME":"EARTH","MEAN_MOTION_DOT":"0.00000568","SITE":"AFETR","EPHEMERIS_TYPE":"0","ARG_OF_PERICENTER":"82.2507","EPOCH":"2022-08-06T21:05:42.358272","OBJECT_NAME":"STARLINK-2012","OBJECT_TYPE":"PAYLOAD","RA_OF_ASC_NODE":"101.0781","TIME_SYSTEM":"UTC","MEAN_MOTION":"15.06398236","COUNTRY_CODE":"US","TLE_LINE2":"2 47635  53.0581 101.0781 0001767  82.2507 277.8683 15.06398236 83748","DECAY_DATE":null,"TLE_LINE1":"1 47635U 21012R   22218.87896248  .00000568  00000-0  57060-4 0  9999","GP_ID":"209724277","APOAPSIS":"548.443","INCLINATION":"53.0581","MEAN_ANOMALY":"277.8683","CLASSIFICATION_TYPE":"U","SEMIMAJOR_AXIS":"6925.354"},{"TLE_LINE2":"2 47636  53.0550 175.9587 0001482  85.1877 274.9281 15.06401613 82694","MEAN_MOTION":"15.06401613","COUNTRY_CODE":"US","OBJECT_NAME":"STARLINK-2013","TIME_SYSTEM":"UTC","OBJECT_TYPE":"PAYLOAD","RA_OF_ASC_NODE":"175.9587","SEMIMAJOR_AXIS":"6925.344","CLASSIFICATION_TYPE":"U","MEAN_ANOMALY":"274.9281","GP_ID":"209724527","INCLINATION":"53.0550","APOAPSIS":"548.235","DECAY_DATE":null,"TLE_LINE1":"1 47636U 21012S   22218.90706235 -.00000144  00000-0  92002-5 0  9997","RCS_SIZE":"LARGE","MEAN_MOTION_DDOT":"0.0000000000000","MEAN_MOTION_DOT":"-0.00000144","CENTER_NAME":"EARTH","BSTAR":"0.00000920020000","NORAD_CAT_ID":"47636","REF_FRAME":"TEME","MEAN_ELEMENT_THEORY":"SGP4","REV_AT_EPOCH":"8269","OBJECT_ID":"2021-012S","LAUNCH_DATE":"2021-02-16","ELEMENT_SET_NO":"999","PERIOD":"95.592","ECCENTRICITY":"0.00014820","PERIAPSIS":"546.182","FILE":"3530813","EPOCH":"2022-08-06T21:46:10.187040","ARG_OF_PERICENTER":"85.1877","SITE":"AFETR","EPHEMERIS_TYPE":"0"},{"OBJECT_TYPE":"PAYLOAD","RA_OF_ASC_NODE":"176.0909","TIME_SYSTEM":"UTC","OBJECT_NAME":"STARLINK-2014","COUNTRY_CODE":"US","MEAN_MOTION":"15.06404077","TLE_LINE2":"2 47637  53.0539 176.0909 0001992  68.3370 291.7831 15.06404077 82706","TLE_LINE1":"1 47637U 21012T   22218.87757602 -.00000242  00000-0  26977-5 0  9995","DECAY_DATE":null,"INCLINATION":"53.0539","APOAPSIS":"548.581","GP_ID":"209725779","MEAN_ANOMALY":"291.7831","SEMIMAJOR_AXIS":"6925.336","CLASSIFICATION_TYPE":"U","FILE":"3530813","LAUNCH_DATE":"2021-02-16","ELEMENT_SET_NO":"999","PERIOD":"95.592","PERIAPSIS":"545.822","ECCENTRICITY":"0.00019920","REV_AT_EPOCH":"8270","OBJECT_ID":"2021-012T","NORAD_CAT_ID":"47637","REF_FRAME":"TEME","MEAN_ELEMENT_THEORY":"SGP4","MEAN_MOTION_DOT":"-0.00000242","CENTER_NAME":"EARTH","BSTAR":"0.00000269770000","MEAN_MOTION_DDOT":"0.0000000000000","RCS_SIZE":"LARGE","EPHEMERIS_TYPE":"0","SITE":"AFETR","EPOCH":"2022-08-06T21:03:42.568128","ARG_OF_PERICENTER":"68.3370"},{"NORAD_CAT_ID":"47638","REF_FRAME":"TEME","MEAN_ELEMENT_THEORY":"SGP4","RCS_SIZE":"LARGE","MEAN_MOTION_DDOT":"0.0000000000000","MEAN_MOTION_DOT":"0.00000905","BSTAR":"0.00007964200000","CENTER_NAME":"EARTH","LAUNCH_DATE":"2021-02-16","ELEMENT_SET_NO":"999","PERIOD":"95.592","ECCENTRICITY":"0.00015370","PERIAPSIS":"546.134","FILE":"3530813","REV_AT_EPOCH":"8372","OBJECT_ID":"2021-012U","EPOCH":"2022-08-06T21:00:23.060160","ARG_OF_PERICENTER":"84.2706","SITE":"AFETR","EPHEMERIS_TYPE":"0","MEAN_MOTION":"15.06404913","COUNTRY_CODE":"US","TLE_LINE2":"2 47638  53.0541 101.0847 0001537  84.2706 275.8458 15.06404913 83724","OBJECT_NAME":"STARLINK-2015","OBJECT_TYPE":"PAYLOAD","TIME_SYSTEM":"UTC","RA_OF_ASC_NODE":"101.0847","MEAN_ANOMALY":"275.8458","SEMIMAJOR_AXIS":"6925.334","CLASSIFICATION_TYPE":"U","DECAY_DATE":null,"TLE_LINE1":"1 47638U 21012U   22218.87526690  .00000905  00000-0  79642-4 0  9998","GP_ID":"209726030","INCLINATION":"53.0541","APOAPSIS":"548.263"},{"COUNTRY_CODE":"US","MEAN_MOTION":"15.06400281","TLE_LINE2":"2 47639  53.0545 176.7867 0001765  72.2770 287.8412 15.06400281 82659","OBJECT_TYPE":"PAYLOAD","TIME_SYSTEM":"UTC","RA_OF_ASC_NODE":"176.7867","OBJECT_NAME":"STARLINK-2016","MEAN_ANOMALY":"287.8412","CLASSIFICATION_TYPE":"U","SEMIMAJOR_AXIS":"6925.348","TLE_LINE1":"1 47639U 21012V   22218.72276976  .00000465  00000-0  50150-4 0  9996","DECAY_DATE":null,"APOAPSIS":"548.435","INCLINATION":"53.0545","GP_ID":"209724778","REF_FRAME":"TEME","MEAN_ELEMENT_THEORY":"SGP4","NORAD_CAT_ID":"47639","BSTAR":"0.00005015000000","CENTER_NAME":"EARTH","MEAN_MOTION_DOT":"0.00000465","RCS_SIZE":"LARGE","MEAN_MOTION_DDOT":"0.0000000000000","FILE":"3530813","ECCENTRICITY":"0.00017650","PERIAPSIS":"545.990","PERIOD":"95.592","LAUNCH_DATE":"2021-02-16","ELEMENT_SET_NO":"999","OBJECT_ID":"2021-012V","REV_AT_EPOCH":"8265","ARG_OF_PERICENTER":"72.2770","EPOCH":"2022-08-06T17:20:47.307264","EPHEMERIS_TYPE":"0","SITE":"AFETR"},{"SITE":"AFETR","EPHEMERIS_TYPE":"0","EPOCH":"2022-08-06T17:12:50.541696","ARG_OF_PERICENTER":"66.6752","REV_AT_EPOCH":"8239","OBJECT_ID":"2021-012W","LAUNCH_DATE":"2021-02-16","PERIOD":"95.592","ELEMENT_SET_NO":"999","PERIAPSIS":"545.973","ECCENTRICITY":"0.00017900","FILE":"3530813","RCS_SIZE":"LARGE","MEAN_MOTION_DDOT":"0.0000000000000","MEAN_MOTION_DOT":"-0.00000003","CENTER_NAME":"EARTH","BSTAR":"0.00001867400000","NORAD_CAT_ID":"47640","REF_FRAME":"TEME","MEAN_ELEMENT_THEORY":"SGP4","GP_ID":"209725028","INCLINATION":"53.0541","APOAPSIS":"548.452","DECAY_DATE":null,"TLE_LINE1":"1 47640U 21012W   22218.71725164 -.00000003  00000-0  18674-4 0  9999","SEMIMAJOR_AXIS":"6925.347","CLASSIFICATION_TYPE":"U","MEAN_ANOMALY":"293.4425","OBJECT_NAME":"STARLINK-2018","TIME_SYSTEM":"UTC","OBJECT_TYPE":"PAYLOAD","RA_OF_ASC_NODE":"196.7993","TLE_LINE2":"2 47640  53.0541 196.7993 0001790  66.6752 293.4425 15.06400423 82390","MEAN_MOTION":"15.06400423","COUNTRY_CODE":"US"}];
